{"fetched_at":"2026-07-14T17:40:23.520Z","source":"https://celestrak.org/NORAD/elements/gp.php?GROUP=oneweb&FORMAT=JSON","constellation":"oneweb","records":[{"OBJECT_NAME":"ONEWEB-0291","OBJECT_ID":"2021-075G","EPOCH":"2026-07-13T23:15:00.724032","CLASSIFICATION_TYPE":"U","MEAN_MOTION":13.1764671,"ECCENTRICITY":0.0002116,"INCLINATION":87.9143,"RA_OF_ASC_NODE":0.5343,"ARG_OF_PERICENTER":84.9738,"MEAN_ANOMALY":275.1635,"EPHEMERIS_TYPE":0,"NORAD_CAT_ID":49081,"ELEMENT_SET_NO":999,"REV_AT_EPOCH":23713,"BSTAR":0.000065409,"MEAN_MOTION_DOT":3.8e-7,"MEAN_MOTION_DDOT":0},{"OBJECT_NAME":"ONEWEB-0293","OBJECT_ID":"2021-075H","EPOCH":"2026-07-13T23:51:26.045280","CLASSIFICATION_TYPE":"U","MEAN_MOTION":13.17650481,"ECCENTRICITY":0.000202,"INCLINATION":87.9144,"RA_OF_ASC_NODE":0.5316,"ARG_OF_PERICENTER":92.8845,"MEAN_ANOMALY":267.2517,"EPHEMERIS_TYPE":0,"NORAD_CAT_ID":49082,"ELEMENT_SET_NO":999,"REV_AT_EPOCH":23716,"BSTAR":0.000029901,"MEAN_MOTION_DOT":2.4e-7,"MEAN_MOTION_DDOT":0},{"OBJECT_NAME":"ONEWEB-0294","OBJECT_ID":"2021-075J","EPOCH":"2026-07-13T22:29:39.198336","CLASSIFICATION_TYPE":"U","MEAN_MOTION":13.12502446,"ECCENTRICITY":0.0002499,"INCLINATION":87.8968,"RA_OF_ASC_NODE":345.3408,"ARG_OF_PERICENTER":101.2284,"MEAN_ANOMALY":258.9126,"EPHEMERIS_TYPE":0,"NORAD_CAT_ID":49083,"ELEMENT_SET_NO":999,"REV_AT_EPOCH":23808,"BSTAR":-0.030926,"MEAN_MOTION_DOT":-0.00011109,"MEAN_MOTION_DDOT":0},{"OBJECT_NAME":"ONEWEB-0295","OBJECT_ID":"2021-075K","EPOCH":"2026-07-13T23:50:13.737120","CLASSIFICATION_TYPE":"U","MEAN_MOTION":13.17650188,"ECCENTRICITY":0.0002004,"INCLINATION":87.9143,"RA_OF_ASC_NODE":0.5361,"ARG_OF_PERICENTER":84.9181,"MEAN_ANOMALY":275.218,"EPHEMERIS_TYPE":0,"NORAD_CAT_ID":49084,"ELEMENT_SET_NO":999,"REV_AT_EPOCH":23712,"BSTAR":0.000023162,"MEAN_MOTION_DOT":2.2e-7,"MEAN_MOTION_DDOT":0},{"OBJECT_NAME":"ONEWEB-0296","OBJECT_ID":"2021-075L","EPOCH":"2026-07-13T22:00:22.566240","CLASSIFICATION_TYPE":"U","MEAN_MOTION":13.12443616,"ECCENTRICITY":0.0002055,"INCLINATION":87.8967,"RA_OF_ASC_NODE":345.3529,"ARG_OF_PERICENTER":88.2867,"MEAN_ANOMALY":271.8497,"EPHEMERIS_TYPE":0,"NORAD_CAT_ID":49085,"ELEMENT_SET_NO":999,"REV_AT_EPOCH":23808,"BSTAR":-0.00091635,"MEAN_MOTION_DOT":-0.00000317,"MEAN_MOTION_DDOT":0},{"OBJECT_NAME":"ONEWEB-0297","OBJECT_ID":"2021-075M","EPOCH":"2026-07-13T20:54:30.964608","CLASSIFICATION_TYPE":"U","MEAN_MOTION":13.124425,"ECCENTRICITY":0.0001878,"INCLINATION":87.8956,"RA_OF_ASC_NODE":345.3691,"ARG_OF_PERICENTER":92.6187,"MEAN_ANOMALY":267.5157,"EPHEMERIS_TYPE":0,"NORAD_CAT_ID":49086,"ELEMENT_SET_NO":999,"REV_AT_EPOCH":23868,"BSTAR":0.00095508,"MEAN_MOTION_DOT":0.00000356,"MEAN_MOTION_DDOT":0},{"OBJECT_NAME":"ONEWEB-0298","OBJECT_ID":"2021-075N","EPOCH":"2026-07-13T23:56:31.714656","CLASSIFICATION_TYPE":"U","MEAN_MOTION":13.17649066,"ECCENTRICITY":0.0001736,"INCLINATION":87.9145,"RA_OF_ASC_NODE":0.5334,"ARG_OF_PERICENTER":89.1844,"MEAN_ANOMALY":270.9486,"EPHEMERIS_TYPE":0,"NORAD_CAT_ID":49087,"ELEMENT_SET_NO":999,"REV_AT_EPOCH":23715,"BSTAR":0.00016313,"MEAN_MOTION_DOT":7.6e-7,"MEAN_MOTION_DDOT":0},{"OBJECT_NAME":"ONEWEB-0299","OBJECT_ID":"2021-075P","EPOCH":"2026-07-13T23:58:43.963680","CLASSIFICATION_TYPE":"U","MEAN_MOTION":13.17648379,"ECCENTRICITY":0.0001837,"INCLINATION":87.9155,"RA_OF_ASC_NODE":0.5155,"ARG_OF_PERICENTER":85.6232,"MEAN_ANOMALY":274.511,"EPHEMERIS_TYPE":0,"NORAD_CAT_ID":49088,"ELEMENT_SET_NO":999,"REV_AT_EPOCH":23713,"BSTAR":0.000090357,"MEAN_MOTION_DOT":4.8e-7,"MEAN_MOTION_DDOT":0},{"OBJECT_NAME":"ONEWEB-0300","OBJECT_ID":"2021-075Q","EPOCH":"2026-07-13T22:33:19.158048","CLASSIFICATION_TYPE":"U","MEAN_MOTION":13.12442966,"ECCENTRICITY":0.000148,"INCLINATION":87.8971,"RA_OF_ASC_NODE":345.338,"ARG_OF_PERICENTER":94.3388,"MEAN_ANOMALY":265.791,"EPHEMERIS_TYPE":0,"NORAD_CAT_ID":49089,"ELEMENT_SET_NO":999,"REV_AT_EPOCH":23871,"BSTAR":0.00095721,"MEAN_MOTION_DOT":0.00000357,"MEAN_MOTION_DDOT":0},{"OBJECT_NAME":"ONEWEB-0301","OBJECT_ID":"2021-075R","EPOCH":"2026-07-13T22:10:07.889952","CLASSIFICATION_TYPE":"U","MEAN_MOTION":13.12443961,"ECCENTRICITY":0.0001526,"INCLINATION":87.8968,"RA_OF_ASC_NODE":345.339,"ARG_OF_PERICENTER":99.5051,"MEAN_ANOMALY":260.625,"EPHEMERIS_TYPE":0,"NORAD_CAT_ID":49090,"ELEMENT_SET_NO":999,"REV_AT_EPOCH":23807,"BSTAR":-0.00047019,"MEAN_MOTION_DOT":-0.00000156,"MEAN_MOTION_DDOT":0},{"OBJECT_NAME":"ONEWEB-0302","OBJECT_ID":"2021-075S","EPOCH":"2026-07-13T20:00:50.203296","CLASSIFICATION_TYPE":"U","MEAN_MOTION":13.124416,"ECCENTRICITY":0.0002188,"INCLINATION":87.8965,"RA_OF_ASC_NODE":345.3691,"ARG_OF_PERICENTER":94.6101,"MEAN_ANOMALY":265.5277,"EPHEMERIS_TYPE":0,"NORAD_CAT_ID":49091,"ELEMENT_SET_NO":999,"REV_AT_EPOCH":23804,"BSTAR":-0.0011289,"MEAN_MOTION_DOT":-0.00000393,"MEAN_MOTION_DDOT":0},{"OBJECT_NAME":"ONEWEB-0304","OBJECT_ID":"2021-075T","EPOCH":"2026-07-13T23:22:16.898016","CLASSIFICATION_TYPE":"U","MEAN_MOTION":13.17647491,"ECCENTRICITY":0.0001929,"INCLINATION":87.9142,"RA_OF_ASC_NODE":0.5409,"ARG_OF_PERICENTER":87.3214,"MEAN_ANOMALY":272.8139,"EPHEMERIS_TYPE":0,"NORAD_CAT_ID":49092,"ELEMENT_SET_NO":999,"REV_AT_EPOCH":23710,"BSTAR":-0.0002772,"MEAN_MOTION_DOT":-9.5e-7,"MEAN_MOTION_DDOT":0},{"OBJECT_NAME":"ONEWEB-0305","OBJECT_ID":"2021-075U","EPOCH":"2026-07-13T23:12:33.756768","CLASSIFICATION_TYPE":"U","MEAN_MOTION":13.17647804,"ECCENTRICITY":0.000194,"INCLINATION":87.915,"RA_OF_ASC_NODE":0.5284,"ARG_OF_PERICENTER":80.3487,"MEAN_ANOMALY":279.7863,"EPHEMERIS_TYPE":0,"NORAD_CAT_ID":49093,"ELEMENT_SET_NO":999,"REV_AT_EPOCH":23713,"BSTAR":-0.000098211,"MEAN_MOTION_DOT":-2.5e-7,"MEAN_MOTION_DDOT":0},{"OBJECT_NAME":"ONEWEB-0308","OBJECT_ID":"2021-075V","EPOCH":"2026-07-13T21:40:51.077280","CLASSIFICATION_TYPE":"U","MEAN_MOTION":13.12442079,"ECCENTRICITY":0.000184,"INCLINATION":87.897,"RA_OF_ASC_NODE":345.3476,"ARG_OF_PERICENTER":96.315,"MEAN_ANOMALY":263.8188,"EPHEMERIS_TYPE":0,"NORAD_CAT_ID":49094,"ELEMENT_SET_NO":999,"REV_AT_EPOCH":23806,"BSTAR":-0.0010884,"MEAN_MOTION_DOT":-0.00000379,"MEAN_MOTION_DDOT":0},{"OBJECT_NAME":"ONEWEB-0309","OBJECT_ID":"2021-075W","EPOCH":"2026-07-13T23:17:25.018080","CLASSIFICATION_TYPE":"U","MEAN_MOTION":13.17650023,"ECCENTRICITY":0.0002353,"INCLINATION":87.9143,"RA_OF_ASC_NODE":0.5346,"ARG_OF_PERICENTER":93.7184,"MEAN_ANOMALY":266.4217,"EPHEMERIS_TYPE":0,"NORAD_CAT_ID":49095,"ELEMENT_SET_NO":999,"REV_AT_EPOCH":23710,"BSTAR":0.000061009,"MEAN_MOTION_DOT":3.7e-7,"MEAN_MOTION_DDOT":0},{"OBJECT_NAME":"ONEWEB-0310","OBJECT_ID":"2021-075X","EPOCH":"2026-07-13T22:02:48.577056","CLASSIFICATION_TYPE":"U","MEAN_MOTION":13.1244399,"ECCENTRICITY":0.0001867,"INCLINATION":87.8961,"RA_OF_ASC_NODE":345.3638,"ARG_OF_PERICENTER":96.2061,"MEAN_ANOMALY":263.928,"EPHEMERIS_TYPE":0,"NORAD_CAT_ID":49096,"ELEMENT_SET_NO":999,"REV_AT_EPOCH":23869,"BSTAR":-0.0007531,"MEAN_MOTION_DOT":-0.00000258,"MEAN_MOTION_DDOT":0}]}
